{
  "type": "FeatureCollection",
  "metadata": {
    "descripcion": "Datos de DEMOSTRACIÓN — no representan lugares reales. Marcados con [DEMO].",
    "version": "1.0.0",
    "fecha": "2026-04-16"
  },
  "features": [
    {
      "type": "Feature",
      "geometry": { "type": "Point", "coordinates": [-3.7038, 40.4168] },
      "properties": {
        "id": "demo-001",
        "nombre": "[DEMO] Supermercado Ejemplo Madrid Centro",
        "tipo": "supermercado_hora_silenciosa",
        "cadena": "SuperDemo S.A.",
        "direccion": "Calle Gran Vía, 45, 28013 Madrid",
        "ciudad": "Madrid",
        "provincia": "Madrid",
        "comunidad": "Comunidad de Madrid",
        "hora_silenciosa_inicio": "15:00",
        "hora_silenciosa_fin": "16:00",
        "dias_semana": "Lunes a Domingo",
        "medidas": ["Sin música", "Luces tenues", "Sin megafonía", "Menor ruido en cajas"],
        "colectivos": ["TEA", "Hipersensibilidad sensorial", "Ansiedad"],
        "verificacion": "DEMO — lugar ficticio",
        "fuente_url": null,
        "fecha_verificacion": null,
        "contacto_web": null,
        "notas": "Este punto es ficticio y sirve solo para demostrar el mapa."
      }
    },
    {
      "type": "Feature",
      "geometry": { "type": "Point", "coordinates": [-0.3773, 39.4699] },
      "properties": {
        "id": "demo-002",
        "nombre": "[DEMO] Hipermercado Ejemplo Valencia",
        "tipo": "supermercado_hora_silenciosa",
        "cadena": "HiperDemo",
        "direccion": "Av. de la Plata, 50, 46013 Valencia",
        "ciudad": "Valencia",
        "provincia": "Valencia",
        "comunidad": "Comunitat Valenciana",
        "hora_silenciosa_inicio": "14:30",
        "hora_silenciosa_fin": "15:30",
        "dias_semana": "Martes, Jueves y Sábado",
        "medidas": ["Sin música", "Luces reguladas", "Sin megafonía"],
        "colectivos": ["TEA", "Hipersensibilidad sensorial"],
        "verificacion": "DEMO — lugar ficticio",
        "fuente_url": null,
        "fecha_verificacion": null,
        "contacto_web": null,
        "notas": "Este punto es ficticio y sirve solo para demostrar el mapa."
      }
    },
    {
      "type": "Feature",
      "geometry": { "type": "Point", "coordinates": [-5.9845, 37.3891] },
      "properties": {
        "id": "demo-003",
        "nombre": "[DEMO] Supermercado Ejemplo Sevilla",
        "tipo": "supermercado_hora_silenciosa",
        "cadena": "SuperDemo S.A.",
        "direccion": "Calle Sierpes, 10, 41004 Sevilla",
        "ciudad": "Sevilla",
        "provincia": "Sevilla",
        "comunidad": "Andalucía",
        "hora_silenciosa_inicio": "15:00",
        "hora_silenciosa_fin": "16:00",
        "dias_semana": "Lunes a Domingo",
        "medidas": ["Sin música", "Luces tenues", "Sin megafonía"],
        "colectivos": ["TEA", "Hipersensibilidad sensorial", "Ansiedad"],
        "verificacion": "DEMO — lugar ficticio",
        "fuente_url": null,
        "fecha_verificacion": null,
        "contacto_web": null,
        "notas": "Este punto es ficticio y sirve solo para demostrar el mapa."
      }
    },
    {
      "type": "Feature",
      "geometry": { "type": "Point", "coordinates": [-2.9253, 43.2630] },
      "properties": {
        "id": "demo-004",
        "nombre": "[DEMO] Biblioteca Tranquila Bilbao",
        "tipo": "biblioteca_sala_sensorial",
        "cadena": null,
        "direccion": "Calle Gran Vía Don Diego López de Haro, 2, 48001 Bilbao",
        "ciudad": "Bilbao",
        "provincia": "Bizkaia",
        "comunidad": "País Vasco",
        "hora_silenciosa_inicio": "10:00",
        "hora_silenciosa_fin": "13:00",
        "dias_semana": "Lunes a Viernes (previa reserva)",
        "medidas": ["Sala insonorizada", "Iluminación regulable", "Sin estímulos visuales agresivos"],
        "colectivos": ["TEA", "TDAH", "Ansiedad", "Hipersensibilidad sensorial"],
        "verificacion": "DEMO — lugar ficticio",
        "fuente_url": null,
        "fecha_verificacion": null,
        "contacto_web": null,
        "notas": "Este punto es ficticio y sirve solo para demostrar el mapa."
      }
    },
    {
      "type": "Feature",
      "geometry": { "type": "Point", "coordinates": [-8.7207, 42.2328] },
      "properties": {
        "id": "demo-005",
        "nombre": "[DEMO] Espacio Natural Tranquilo Rías Baixas",
        "tipo": "espacio_natural_certificado",
        "cadena": null,
        "direccion": "Parque Natural Baixa Limia-Serra do Xurés, Galicia",
        "ciudad": "Lobios",
        "provincia": "Ourense",
        "comunidad": "Galicia",
        "hora_silenciosa_inicio": null,
        "hora_silenciosa_fin": null,
        "dias_semana": "Acceso libre todo el año",
        "medidas": ["Baja contaminación acústica", "Paisaje sonoro natural", "Sin tráfico"],
        "colectivos": ["TEA", "Ansiedad", "Estrés", "Síndrome de burnout"],
        "verificacion": "DEMO — lugar ficticio",
        "fuente_url": null,
        "fecha_verificacion": null,
        "contacto_web": null,
        "notas": "Este punto es ficticio y sirve solo para demostrar el mapa."
      }
    },
    {
      "type": "Feature",
      "geometry": { "type": "Point", "coordinates": [-1.1307, 37.9922] },
      "properties": {
        "id": "demo-006",
        "nombre": "[DEMO] Centro Cívico Sala Tranquila Murcia",
        "tipo": "centro_civico_zona_silencio",
        "cadena": null,
        "direccion": "Calle Trapería, 22, 30001 Murcia",
        "ciudad": "Murcia",
        "provincia": "Murcia",
        "comunidad": "Región de Murcia",
        "hora_silenciosa_inicio": "09:00",
        "hora_silenciosa_fin": "21:00",
        "dias_semana": "Lunes a Sábado",
        "medidas": ["Sala reservada", "Sin ruido exterior", "Iluminación suave"],
        "colectivos": ["TEA", "TDAH", "Ansiedad", "Estudio accesible"],
        "verificacion": "DEMO — lugar ficticio",
        "fuente_url": null,
        "fecha_verificacion": null,
        "contacto_web": null,
        "notas": "Este punto es ficticio y sirve solo para demostrar el mapa."
      }
    },
    {
      "type": "Feature",
      "geometry": { "type": "Point", "coordinates": [-4.4214, 36.7213] },
      "properties": {
        "id": "demo-007",
        "nombre": "[DEMO] Hotel Silencio Activo Málaga",
        "tipo": "hotel_politica_silencio",
        "cadena": null,
        "direccion": "Calle Larios, 7, 29015 Málaga",
        "ciudad": "Málaga",
        "provincia": "Málaga",
        "comunidad": "Andalucía",
        "hora_silenciosa_inicio": "22:00",
        "hora_silenciosa_fin": "08:00",
        "dias_semana": "Todos los días",
        "medidas": ["Política de silencio estricta", "Habitaciones insonorizadas", "Sin música en zonas comunes nocturnas"],
        "colectivos": ["TEA", "Hipersensibilidad sensorial", "Viajeros con ansiedad"],
        "verificacion": "DEMO — lugar ficticio",
        "fuente_url": null,
        "fecha_verificacion": null,
        "contacto_web": null,
        "notas": "Este punto es ficticio y sirve solo para demostrar el mapa."
      }
    },
    {
      "type": "Feature",
      "geometry": { "type": "Point", "coordinates": [-1.6492, 42.8467] },
      "properties": {
        "id": "demo-008",
        "nombre": "[DEMO] Supermercado Ejemplo Pamplona",
        "tipo": "supermercado_hora_silenciosa",
        "cadena": "SuperDemo Norte",
        "direccion": "Av. de Zaragoza, 88, 31008 Pamplona",
        "ciudad": "Pamplona",
        "provincia": "Navarra",
        "comunidad": "Comunidad Foral de Navarra",
        "hora_silenciosa_inicio": "15:00",
        "hora_silenciosa_fin": "16:00",
        "dias_semana": "Lunes a Domingo",
        "medidas": ["Sin música", "Luces tenues", "Sin megafonía"],
        "colectivos": ["TEA", "Hipersensibilidad sensorial"],
        "verificacion": "DEMO — lugar ficticio",
        "fuente_url": null,
        "fecha_verificacion": null,
        "contacto_web": null,
        "notas": "Este punto es ficticio y sirve solo para demostrar el mapa."
      }
    },
    {
      "type": "Feature",
      "geometry": { "type": "Point", "coordinates": [-0.8891, 41.6560] },
      "properties": {
        "id": "demo-009",
        "nombre": "[DEMO] Sala de Estudio Sensorial Zaragoza",
        "tipo": "sala_estudio_accesible",
        "cadena": null,
        "direccion": "Paseo de la Independencia, 30, 50004 Zaragoza",
        "ciudad": "Zaragoza",
        "provincia": "Zaragoza",
        "comunidad": "Aragón",
        "hora_silenciosa_inicio": "08:00",
        "hora_silenciosa_fin": "22:00",
        "dias_semana": "Lunes a Domingo",
        "medidas": ["Zona diferenciada baja estimulación", "Auriculares bloqueadores disponibles", "Sin pantallas parpadeantes"],
        "colectivos": ["TEA", "TDAH", "Ansiedad", "Hipersensibilidad sensorial"],
        "verificacion": "DEMO — lugar ficticio",
        "fuente_url": null,
        "fecha_verificacion": null,
        "contacto_web": null,
        "notas": "Este punto es ficticio y sirve solo para demostrar el mapa."
      }
    },
    {
      "type": "Feature",
      "geometry": { "type": "Point", "coordinates": [-3.5981, 37.1773] },
      "properties": {
        "id": "demo-010",
        "nombre": "[DEMO] Espacio Tranquilo Granada",
        "tipo": "espacio_natural_certificado",
        "cadena": null,
        "direccion": "Parque García Lorca, Huerta de San Vicente, Granada",
        "ciudad": "Granada",
        "provincia": "Granada",
        "comunidad": "Andalucía",
        "hora_silenciosa_inicio": null,
        "hora_silenciosa_fin": null,
        "dias_semana": "Acceso libre",
        "medidas": ["Zona de baja estimulación", "Sin música ambiental", "Vegetación densa como barrera sonora"],
        "colectivos": ["TEA", "Ansiedad", "Estrés"],
        "verificacion": "DEMO — lugar ficticio",
        "fuente_url": null,
        "fecha_verificacion": null,
        "contacto_web": null,
        "notas": "Este punto es ficticio y sirve solo para demostrar el mapa."
      }
    }
  ]
}
